STARLINK-30521          
1 57966U 23151C   25330.03508177  .00002380  00000+0  19122-3 0  9999
2 57966  43.0023 181.8208 0001017 269.8857  90.1869 15.02523499120140
STARLINK-30528          
1 57967U 23151D   25329.96526180  .00000594  00000+0  59044-4 0  9997
2 57967  43.0008 182.1588 0001085 258.2340 101.8380 15.02536283120135
STARLINK-30495          
1 57968U 23151E   25329.99522725  .00000555  00000+0  56115-4 0  9995
2 57968  43.0018 182.3770 0001151 265.7832  94.2878 15.02539817120138
STARLINK-30494          
1 57970U 23151G   25329.79462456  .00085468  00000+0  42001-3 0  9994
2 57970  42.9791  81.1924 0001824 283.8410  76.2258 15.81201007121298
STARLINK-30498          
1 57971U 23151H   25330.00077130 -.00001507  00000+0 -96538-4 0  9991
2 57971  42.9991 182.4055 0001111 208.0092 152.0691 15.02535750120139
STARLINK-30505          
1 57972U 23151J   25330.01742298  .00005585  00000+0  42803-3 0  9990
2 57972  43.0005 182.5271 0001204 261.7229  98.3477 15.02546481120137
STARLINK-30502          
1 57973U 23151K   25330.00521717 -.00000756  00000+0 -40927-4 0  9994
2 57973  43.0020 182.4403 0001033 262.5219  97.5505 15.02534454120139
STARLINK-30489          
1 57974U 23151L   25330.03062507  .00000815  00000+0  75420-4 0  9995
2 57974  43.0029 181.7765 0001170 267.1355  92.9353 15.02536807120141
STARLINK-30503          
1 57975U 23151M   25330.01297712 -.00010904  00000+0 -79235-3 0  9991
2 57975  43.0025 182.4757 0000872 276.3589  83.7154 15.02586002120134
STARLINK-30512          
1 57976U 23151N   25329.98189643  .00000275  00000+0  35384-4 0  9995
2 57976  43.0016 182.2103 0000971 265.6776  94.3955 15.02538369120137
STARLINK-30509          
1 57977U 23151P   25330.03600082 -.00002765  00000+0 -18969-3 0  9996
2 57977  43.0048 195.3997 0001997 259.1959 100.8658 15.02537528119989
STARLINK-30511          
1 57978U 23151Q   25330.02933821 -.00000055  00000+0  10991-4 0  9993
2 57978  43.0038 195.3490 0001245 261.1858  98.8843 15.02536303119986
STARLINK-30508          
1 57979U 23151R   25330.02600451  .00000460  00000+0  49095-4 0  9990
2 57979  43.0031 195.3181 0001117 266.8038  93.2677 15.02540023119985
STARLINK-30504          
1 57980U 23151S   25330.16670139  .00128308  00000+0  40109-2 0  9994
2 57980  42.9980  98.5930 0006212 329.0894  26.5233 15.31948042  5905
STARLINK-30510          
1 57981U 23151T   25330.02267924  .00000092  00000+0  21867-4 0  9995
2 57981  43.0042 195.2987 0000966 257.1975 102.8760 15.02535110119988
STARLINK-30507          
1 57982U 23151U   25330.01935016  .00000569  00000+0  57169-4 0  9992
2 57982  43.0043 195.2739 0001036 263.2126  96.8598 15.02536091119980
