[{"OBJECT_NAME":"STARLINK-30521","OBJECT_ID":"2023-151C","EPOCH":"2025-11-26T00:50:31.064928","MEAN_MOTION":15.02523499,"ECCENTRICITY":0.0001017,"INCLINATION":43.0023,"RA_OF_ASC_NODE":181.8208,"ARG_OF_PERICENTER":269.8857,"MEAN_ANOMALY":90.1869,"EPHEMERIS_TYPE":0,"CLASSIFICATION_TYPE":"U","NORAD_CAT_ID":57966,"ELEMENT_SET_NO":999,"REV_AT_EPOCH":12014,"BSTAR":0.00019122,"MEAN_MOTION_DOT":2.38e-5,"MEAN_MOTION_DDOT":0},{"OBJECT_NAME":"STARLINK-30528","OBJECT_ID":"2023-151D","EPOCH":"2025-11-25T23:09:58.619520","MEAN_MOTION":15.02536283,"ECCENTRICITY":0.00010853,"INCLINATION":43.0008,"RA_OF_ASC_NODE":182.1588,"ARG_OF_PERICENTER":258.234,"MEAN_ANOMALY":101.838,"EPHEMERIS_TYPE":0,"CLASSIFICATION_TYPE":"U","NORAD_CAT_ID":57967,"ELEMENT_SET_NO":999,"REV_AT_EPOCH":12013,"BSTAR":5.9044438e-5,"MEAN_MOTION_DOT":5.94e-6,"MEAN_MOTION_DDOT":0},{"OBJECT_NAME":"STARLINK-30495","OBJECT_ID":"2023-151E","EPOCH":"2025-11-25T23:53:07.634400","MEAN_MOTION":15.02539817,"ECCENTRICITY":0.00011519,"INCLINATION":43.0018,"RA_OF_ASC_NODE":182.377,"ARG_OF_PERICENTER":265.7832,"MEAN_ANOMALY":94.2878,"EPHEMERIS_TYPE":0,"CLASSIFICATION_TYPE":"U","NORAD_CAT_ID":57968,"ELEMENT_SET_NO":999,"REV_AT_EPOCH":12013,"BSTAR":5.6115397e-5,"MEAN_MOTION_DOT":5.55e-6,"MEAN_MOTION_DDOT":0},{"OBJECT_NAME":"STARLINK-30494","OBJECT_ID":"2023-151G","EPOCH":"2025-11-25T19:04:15.561984","MEAN_MOTION":15.81201007,"ECCENTRICITY":0.00018246,"INCLINATION":42.9791,"RA_OF_ASC_NODE":81.1924,"ARG_OF_PERICENTER":283.841,"MEAN_ANOMALY":76.2258,"EPHEMERIS_TYPE":0,"CLASSIFICATION_TYPE":"U","NORAD_CAT_ID":57970,"ELEMENT_SET_NO":999,"REV_AT_EPOCH":12129,"BSTAR":0.00042000828,"MEAN_MOTION_DOT":0.00085468,"MEAN_MOTION_DDOT":0},{"OBJECT_NAME":"STARLINK-30498","OBJECT_ID":"2023-151H","EPOCH":"2025-11-26T00:01:06.640320","MEAN_MOTION":15.0253575,"ECCENTRICITY":0.00011116,"INCLINATION":42.9991,"RA_OF_ASC_NODE":182.4055,"ARG_OF_PERICENTER":208.0092,"MEAN_ANOMALY":152.0691,"EPHEMERIS_TYPE":0,"CLASSIFICATION_TYPE":"U","NORAD_CAT_ID":57971,"ELEMENT_SET_NO":999,"REV_AT_EPOCH":12013,"BSTAR":-9.653805e-5,"MEAN_MOTION_DOT":-1.507e-5,"MEAN_MOTION_DDOT":0},{"OBJECT_NAME":"STARLINK-30505","OBJECT_ID":"2023-151J","EPOCH":"2025-11-26T00:25:05.345472","MEAN_MOTION":15.02546481,"ECCENTRICITY":0.00012042,"INCLINATION":43.0005,"RA_OF_ASC_NODE":182.5271,"ARG_OF_PERICENTER":261.7229,"MEAN_ANOMALY":98.3477,"EPHEMERIS_TYPE":0,"CLASSIFICATION_TYPE":"U","NORAD_CAT_ID":57972,"ELEMENT_SET_NO":999,"REV_AT_EPOCH":12013,"BSTAR":0.00042802839,"MEAN_MOTION_DOT":5.585e-5,"MEAN_MOTION_DDOT":0},{"OBJECT_NAME":"STARLINK-30502","OBJECT_ID":"2023-151K","EPOCH":"2025-11-26T00:07:30.763488","MEAN_MOTION":15.02534454,"ECCENTRICITY":0.00010339,"INCLINATION":43.002,"RA_OF_ASC_NODE":182.4403,"ARG_OF_PERICENTER":262.5219,"MEAN_ANOMALY":97.5505,"EPHEMERIS_TYPE":0,"CLASSIFICATION_TYPE":"U","NORAD_CAT_ID":57973,"ELEMENT_SET_NO":999,"REV_AT_EPOCH":12013,"BSTAR":-4.0927467e-5,"MEAN_MOTION_DOT":-7.56e-6,"MEAN_MOTION_DDOT":0},{"OBJECT_NAME":"STARLINK-30489","OBJECT_ID":"2023-151L","EPOCH":"2025-11-26T00:44:06.006048","MEAN_MOTION":15.02536807,"ECCENTRICITY":0.000117,"INCLINATION":43.0029,"RA_OF_ASC_NODE":181.7765,"ARG_OF_PERICENTER":267.1355,"MEAN_ANOMALY":92.9353,"EPHEMERIS_TYPE":0,"CLASSIFICATION_TYPE":"U","NORAD_CAT_ID":57974,"ELEMENT_SET_NO":999,"REV_AT_EPOCH":12014,"BSTAR":7.542e-5,"MEAN_MOTION_DOT":8.15e-6,"MEAN_MOTION_DDOT":0},{"OBJECT_NAME":"STARLINK-30503","OBJECT_ID":"2023-151M","EPOCH":"2025-11-26T00:18:41.223168","MEAN_MOTION":15.02586002,"ECCENTRICITY":8.722e-5,"INCLINATION":43.0025,"RA_OF_ASC_NODE":182.4757,"ARG_OF_PERICENTER":276.3589,"MEAN_ANOMALY":83.7154,"EPHEMERIS_TYPE":0,"CLASSIFICATION_TYPE":"U","NORAD_CAT_ID":57975,"ELEMENT_SET_NO":999,"REV_AT_EPOCH":12013,"BSTAR":-0.00079235268,"MEAN_MOTION_DOT":-0.00010904,"MEAN_MOTION_DDOT":0},{"OBJECT_NAME":"STARLINK-30512","OBJECT_ID":"2023-151N","EPOCH":"2025-11-25T23:33:55.851552","MEAN_MOTION":15.02538369,"ECCENTRICITY":9.718e-5,"INCLINATION":43.0016,"RA_OF_ASC_NODE":182.2103,"ARG_OF_PERICENTER":265.6776,"MEAN_ANOMALY":94.3955,"EPHEMERIS_TYPE":0,"CLASSIFICATION_TYPE":"U","NORAD_CAT_ID":57976,"ELEMENT_SET_NO":999,"REV_AT_EPOCH":12013,"BSTAR":3.5383694e-5,"MEAN_MOTION_DOT":2.75e-6,"MEAN_MOTION_DDOT":0},{"OBJECT_NAME":"STARLINK-30509","OBJECT_ID":"2023-151P","EPOCH":"2025-11-26T00:51:50.470848","MEAN_MOTION":15.02537528,"ECCENTRICITY":0.0001997,"INCLINATION":43.0048,"RA_OF_ASC_NODE":195.3997,"ARG_OF_PERICENTER":259.1959,"MEAN_ANOMALY":100.8658,"EPHEMERIS_TYPE":0,"CLASSIFICATION_TYPE":"U","NORAD_CAT_ID":57977,"ELEMENT_SET_NO":999,"REV_AT_EPOCH":11998,"BSTAR":-0.00018969,"MEAN_MOTION_DOT":-2.765e-5,"MEAN_MOTION_DDOT":0},{"OBJECT_NAME":"STARLINK-30511","OBJECT_ID":"2023-151Q","EPOCH":"2025-11-26T00:42:14.821344","MEAN_MOTION":15.02536303,"ECCENTRICITY":0.0001245,"INCLINATION":43.0038,"RA_OF_ASC_NODE":195.349,"ARG_OF_PERICENTER":261.1858,"MEAN_ANOMALY":98.8843,"EPHEMERIS_TYPE":0,"CLASSIFICATION_TYPE":"U","NORAD_CAT_ID":57978,"ELEMENT_SET_NO":999,"REV_AT_EPOCH":11998,"BSTAR":1.0991e-5,"MEAN_MOTION_DOT":-5.5e-7,"MEAN_MOTION_DDOT":0},{"OBJECT_NAME":"STARLINK-30508","OBJECT_ID":"2023-151R","EPOCH":"2025-11-26T00:37:26.789664","MEAN_MOTION":15.02540023,"ECCENTRICITY":0.0001117,"INCLINATION":43.0031,"RA_OF_ASC_NODE":195.3181,"ARG_OF_PERICENTER":266.8038,"MEAN_ANOMALY":93.2677,"EPHEMERIS_TYPE":0,"CLASSIFICATION_TYPE":"U","NORAD_CAT_ID":57979,"ELEMENT_SET_NO":999,"REV_AT_EPOCH":11998,"BSTAR":4.9095e-5,"MEAN_MOTION_DOT":4.6e-6,"MEAN_MOTION_DDOT":0},{"OBJECT_NAME":"STARLINK-30504","OBJECT_ID":"2023-151S","EPOCH":"2025-11-26T04:00:03.000096","MEAN_MOTION":15.31948042,"ECCENTRICITY":0.0006212,"INCLINATION":42.998,"RA_OF_ASC_NODE":98.593,"ARG_OF_PERICENTER":329.0894,"MEAN_ANOMALY":26.5233,"EPHEMERIS_TYPE":0,"CLASSIFICATION_TYPE":"U","NORAD_CAT_ID":57980,"ELEMENT_SET_NO":999,"REV_AT_EPOCH":590,"BSTAR":0.0040109,"MEAN_MOTION_DOT":0.00128308,"MEAN_MOTION_DDOT":0},{"OBJECT_NAME":"STARLINK-30510","OBJECT_ID":"2023-151T","EPOCH":"2025-11-26T00:32:39.486336","MEAN_MOTION":15.0253511,"ECCENTRICITY":9.664e-5,"INCLINATION":43.0042,"RA_OF_ASC_NODE":195.2987,"ARG_OF_PERICENTER":257.1975,"MEAN_ANOMALY":102.876,"EPHEMERIS_TYPE":0,"CLASSIFICATION_TYPE":"U","NORAD_CAT_ID":57981,"ELEMENT_SET_NO":999,"REV_AT_EPOCH":11998,"BSTAR":2.1866659e-5,"MEAN_MOTION_DOT":9.2e-7,"MEAN_MOTION_DDOT":0},{"OBJECT_NAME":"STARLINK-30507","OBJECT_ID":"2023-151U","EPOCH":"2025-11-26T00:27:51.853824","MEAN_MOTION":15.02536091,"ECCENTRICITY":0.00010368,"INCLINATION":43.0043,"RA_OF_ASC_NODE":195.2739,"ARG_OF_PERICENTER":263.2126,"MEAN_ANOMALY":96.8598,"EPHEMERIS_TYPE":0,"CLASSIFICATION_TYPE":"U","NORAD_CAT_ID":57982,"ELEMENT_SET_NO":999,"REV_AT_EPOCH":11998,"BSTAR":5.716915e-5,"MEAN_MOTION_DOT":5.69e-6,"MEAN_MOTION_DDOT":0}]
